start=new Date('2022-05-03T00:00:00.000Z').valueOf();
sats=[{"FILE":"3426306","ARG_OF_PERICENTER":"76.6723","ECCENTRICITY":"0.00037890","OBJECT_ID":"2020-012AM","MEAN_MOTION_DDOT":"0.0000000000000","BSTAR":"0.00030279000000","CLASSIFICATION_TYPE":"U","OBJECT_NAME":"STARLINK-1232","TLE_LINE1":"1 45213U 20012AM  22122.68756819  .00011376  00000-0  30279-3 0  9991","TIME_SYSTEM":"UTC","PERIAPSIS":"447.355","CENTER_NAME":"EARTH","COUNTRY_CODE":"US","REF_FRAME":"TEME","APOAPSIS":"452.529","TLE_LINE2":"2 45213  53.0598 202.5385 0003789  76.6723 283.4703 15.38704199123347","SEMIMAJOR_AXIS":"6828.077","GP_ID":"202554792","PERIOD":"93.585","EPHEMERIS_TYPE":"0","EPOCH":"2022-05-02T16:30:05.891616","MEAN_ELEMENT_THEORY":"SGP4","LAUNCH_DATE":"2020-02-17","MEAN_ANOMALY":"283.4703","OBJECT_TYPE":"PAYLOAD","NORAD_CAT_ID":"45213","RCS_SIZE":"LARGE","RA_OF_ASC_NODE":"202.5385","DECAY_DATE":null,"INCLINATION":"53.0598","REV_AT_EPOCH":"12334","ELEMENT_SET_NO":"999","MEAN_MOTION":"15.38704199","MEAN_MOTION_DOT":"0.00011376","SITE":"AFETR"},{"MEAN_MOTION_DDOT":"0.0000000000000","OBJECT_ID":"2020-012AN","ECCENTRICITY":"0.00018070","CLASSIFICATION_TYPE":"U","BSTAR":"0.00020220000000","FILE":"3426306","ARG_OF_PERICENTER":"54.2906","PERIAPSIS":"546.002","REF_FRAME":"TEME","COUNTRY_CODE":"US","CENTER_NAME":"EARTH","TIME_SYSTEM":"UTC","TLE_LINE1":"1 45214U 20012AN  22122.59763544  .00002730  00000-0  20220-3 0  9994","OBJECT_NAME":"STARLINK-1233","MEAN_ELEMENT_THEORY":"SGP4","EPHEMERIS_TYPE":"0","EPOCH":"2022-05-02T14:20:35.702016","MEAN_ANOMALY":"305.8251","LAUNCH_DATE":"2020-02-17","APOAPSIS":"548.504","PERIOD":"95.593","TLE_LINE2":"2 45214  53.0537 223.3043 0001807  54.2906 305.8251 15.06387108123032","GP_ID":"202553546","SEMIMAJOR_AXIS":"6925.388","MEAN_MOTION_DOT":"0.00002730","SITE":"AFETR","DECAY_DATE":null,"REV_AT_EPOCH":"12303","ELEMENT_SET_NO":"999","MEAN_MOTION":"15.06387108","INCLINATION":"53.0537","RCS_SIZE":"LARGE","OBJECT_TYPE":"PAYLOAD","NORAD_CAT_ID":"45214","RA_OF_ASC_NODE":"223.3043"},{"COUNTRY_CODE":"US","REF_FRAME":"TEME","CENTER_NAME":"EARTH","PERIAPSIS":"546.003","TIME_SYSTEM":"UTC","TLE_LINE1":"1 45215U 20012AP  22122.59396124  .00001990  00000-0  15260-3 0  9996","OBJECT_NAME":"STARLINK-1245","CLASSIFICATION_TYPE":"U","BSTAR":"0.00015260000000","MEAN_MOTION_DDOT":"0.0000000000000","ECCENTRICITY":"0.00018720","OBJECT_ID":"2020-012AP","ARG_OF_PERICENTER":"56.1856","FILE":"3426306","SITE":"AFETR","MEAN_MOTION_DOT":"0.00001990","INCLINATION":"53.0542","DECAY_DATE":null,"REV_AT_EPOCH":"12297","ELEMENT_SET_NO":"999","MEAN_MOTION":"15.06371995","RA_OF_ASC_NODE":"223.3147","RCS_SIZE":"LARGE","OBJECT_TYPE":"PAYLOAD","NORAD_CAT_ID":"45215","MEAN_ANOMALY":"303.9311","LAUNCH_DATE":"2020-02-17","MEAN_ELEMENT_THEORY":"SGP4","EPHEMERIS_TYPE":"0","EPOCH":"2022-05-02T14:15:18.251136","PERIOD":"95.594","TLE_LINE2":"2 45215  53.0542 223.3147 0001872  56.1856 303.9311 15.06371995122976","SEMIMAJOR_AXIS":"6925.434","GP_ID":"202553796","APOAPSIS":"548.596"},{"CLASSIFICATION_TYPE":"U","BSTAR":"0.00066349000000","MEAN_MOTION_DDOT":"0.0000000000000","ECCENTRICITY":"0.00015850","OBJECT_ID":"2020-012AR","ARG_OF_PERICENTER":"54.8859","FILE":"3426306","CENTER_NAME":"EARTH","COUNTRY_CODE":"US","REF_FRAME":"TEME","PERIAPSIS":"546.079","TLE_LINE1":"1 45217U 20012AR  22122.70083240  .00009618  00000-0  66349-3 0  9992","TIME_SYSTEM":"UTC","OBJECT_NAME":"STARLINK-1271","MEAN_ANOMALY":"305.2278","LAUNCH_DATE":"2020-02-17","MEAN_ELEMENT_THEORY":"SGP4","EPOCH":"2022-05-02T16:49:11.919360","EPHEMERIS_TYPE":"0","PERIOD":"95.591","SEMIMAJOR_AXIS":"6925.312","TLE_LINE2":"2 45217  53.0544 222.8417 0001585  54.8859 305.2278 15.06412083123054","GP_ID":"202554046","APOAPSIS":"548.274","SITE":"AFETR","MEAN_MOTION_DOT":"0.00009618","REV_AT_EPOCH":"12305","DECAY_DATE":null,"ELEMENT_SET_NO":"999","INCLINATION":"53.0544","MEAN_MOTION":"15.06412083","RA_OF_ASC_NODE":"222.8417","RCS_SIZE":"LARGE","NORAD_CAT_ID":"45217","OBJECT_TYPE":"PAYLOAD"},{"APOAPSIS":"548.366","PERIOD":"95.593","GP_ID":"202554292","TLE_LINE2":"2 45219  53.0542 203.1437 0001624  62.5958 297.5196 15.06391041123331","SEMIMAJOR_AXIS":"6925.376","MEAN_ELEMENT_THEORY":"SGP4","EPHEMERIS_TYPE":"0","EPOCH":"2022-05-02T15:11:01.269312","MEAN_ANOMALY":"297.5196","LAUNCH_DATE":"2020-02-17","RCS_SIZE":"LARGE","NORAD_CAT_ID":"45219","OBJECT_TYPE":"PAYLOAD","RA_OF_ASC_NODE":"203.1437","SITE":"AFETR","MEAN_MOTION_DOT":"0.00003291","ELEMENT_SET_NO":"999","DECAY_DATE":null,"REV_AT_EPOCH":"12333","MEAN_MOTION":"15.06391041","INCLINATION":"53.0542","FILE":"3426306","ARG_OF_PERICENTER":"62.5958","MEAN_MOTION_DDOT":"0.0000000000000","ECCENTRICITY":"0.00016240","OBJECT_ID":"2020-012AT","CLASSIFICATION_TYPE":"U","BSTAR":"0.00023981000000","TIME_SYSTEM":"UTC","TLE_LINE1":"1 45219U 20012AT  22122.63265358  .00003291  00000-0  23981-3 0  9994","OBJECT_NAME":"STARLINK-1187","PERIAPSIS":"546.116","REF_FRAME":"TEME","COUNTRY_CODE":"US","CENTER_NAME":"EARTH"},{"PERIAPSIS":"546.084","COUNTRY_CODE":"US","REF_FRAME":"TEME","CENTER_NAME":"EARTH","TIME_SYSTEM":"UTC","TLE_LINE1":"1 45221U 20012AV  22122.70267723  .00005778  00000-0  40651-3 0  9998","OBJECT_NAME":"STARLINK-1189","MEAN_MOTION_DDOT":"0.0000000000000","OBJECT_ID":"2020-012AV","ECCENTRICITY":"0.00016590","CLASSIFICATION_TYPE":"U","BSTAR":"0.00040651000000","FILE":"3426306","ARG_OF_PERICENTER":"59.9221","MEAN_MOTION_DOT":"0.00005778","SITE":"AFETR","DECAY_DATE":null,"ELEMENT_SET_NO":"999","REV_AT_EPOCH":"12333","INCLINATION":"53.0543","MEAN_MOTION":"15.06393677","RCS_SIZE":"LARGE","NORAD_CAT_ID":"45221","OBJECT_TYPE":"PAYLOAD","RA_OF_ASC_NODE":"202.8408","MEAN_ELEMENT_THEORY":"SGP4","EPHEMERIS_TYPE":"0","EPOCH":"2022-05-02T16:51:51.312672","MEAN_ANOMALY":"300.1932","LAUNCH_DATE":"2020-02-17","APOAPSIS":"548.382","PERIOD":"95.593","TLE_LINE2":"2 45221  53.0543 202.8408 0001659  59.9221 300.1932 15.06393677123336","GP_ID":"202553046","SEMIMAJOR_AXIS":"6925.368"},{"BSTAR":"0.00014631000000","CLASSIFICATION_TYPE":"U","OBJECT_ID":"2020-012AW","ECCENTRICITY":"0.00016820","MEAN_MOTION_DDOT":"0.0000000000000","ARG_OF_PERICENTER":"50.6065","FILE":"3426306","COUNTRY_CODE":"US","REF_FRAME":"TEME","CENTER_NAME":"EARTH","PERIAPSIS":"546.133","OBJECT_NAME":"STARLINK-1191","TIME_SYSTEM":"UTC","TLE_LINE1":"1 45222U 20012AW  22122.64372288  .00001897  00000-0  14631-3 0  9992","LAUNCH_DATE":"2020-02-17","MEAN_ANOMALY":"309.5073","EPHEMERIS_TYPE":"0","EPOCH":"2022-05-02T15:26:57.656832","MEAN_ELEMENT_THEORY":"SGP4","TLE_LINE2":"2 45222  53.0534 203.0890 0001682  50.6065 309.5073 15.06372370123320","SEMIMAJOR_AXIS":"6925.433","GP_ID":"202553296","PERIOD":"95.594","APOAPSIS":"548.463","DECAY_DATE":null,"ELEMENT_SET_NO":"999","REV_AT_EPOCH":"12332","MEAN_MOTION":"15.06372370","INCLINATION":"53.0534","SITE":"AFETR","MEAN_MOTION_DOT":"0.00001897","RA_OF_ASC_NODE":"203.0890","OBJECT_TYPE":"PAYLOAD","NORAD_CAT_ID":"45222","RCS_SIZE":"LARGE"},{"APOAPSIS":"548.629","PERIOD":"95.594","TLE_LINE2":"2 45223  53.0551 203.3047 0001900  50.3736 309.7420 15.06367610123321","SEMIMAJOR_AXIS":"6925.448","GP_ID":"202554547","MEAN_ELEMENT_THEORY":"SGP4","EPOCH":"2022-05-02T14:23:16.292832","EPHEMERIS_TYPE":"0","MEAN_ANOMALY":"309.7420","LAUNCH_DATE":"2020-02-17","RCS_SIZE":"LARGE","OBJECT_TYPE":"PAYLOAD","NORAD_CAT_ID":"45223","RA_OF_ASC_NODE":"203.3047","MEAN_MOTION_DOT":"0.00000659","SITE":"AFETR","INCLINATION":"53.0551","DECAY_DATE":null,"REV_AT_EPOCH":"12332","ELEMENT_SET_NO":"999","MEAN_MOTION":"15.06367610","FILE":"3426306","ARG_OF_PERICENTER":"50.3736","MEAN_MOTION_DDOT":"0.0000000000000","ECCENTRICITY":"0.00019000","OBJECT_ID":"2020-012AX","CLASSIFICATION_TYPE":"U","BSTAR":"0.00006317400000","TIME_SYSTEM":"UTC","TLE_LINE1":"1 45223U 20012AX  22122.59949413  .00000659  00000-0  63174-4 0  9999","OBJECT_NAME":"STARLINK-1212","PERIAPSIS":"545.997","CENTER_NAME":"EARTH","COUNTRY_CODE":"US","REF_FRAME":"TEME"},{"PERIAPSIS":"315.968","COUNTRY_CODE":"US","CENTER_NAME":"EARTH","REF_FRAME":"TEME","TIME_SYSTEM":"UTC","TLE_LINE1":"1 45224U 20012AY  22122.20505161  .00139589  00000-0  60649-3 0  9994","OBJECT_NAME":"STARLINK-1214","MEAN_MOTION_DDOT":"0.0000000000000","OBJECT_ID":"2020-012AY","ECCENTRICITY":"0.00051330","CLASSIFICATION_TYPE":"U","BSTAR":"0.00060649000000","FILE":"3425830","ARG_OF_PERICENTER":"83.1066","MEAN_MOTION_DOT":"0.00139589","SITE":"AFETR","INCLINATION":"53.0437","DECAY_DATE":null,"REV_AT_EPOCH":"12534","ELEMENT_SET_NO":"999","MEAN_MOTION":"15.83907154","RCS_SIZE":"LARGE","NORAD_CAT_ID":"45224","OBJECT_TYPE":"PAYLOAD","RA_OF_ASC_NODE":"47.6407","MEAN_ELEMENT_THEORY":"SGP4","EPHEMERIS_TYPE":"0","EPOCH":"2022-05-02T04:55:16.459104","MEAN_ANOMALY":"277.0540","LAUNCH_DATE":"2020-02-17","APOAPSIS":"322.844","PERIOD":"90.914","GP_ID":"202518625","TLE_LINE2":"2 45224  53.0437  47.6407 0005133  83.1066 277.0540 15.83907154125348","SEMIMAJOR_AXIS":"6697.541"},{"CENTER_NAME":"EARTH","COUNTRY_CODE":"US","REF_FRAME":"TEME","PERIAPSIS":"546.026","TLE_LINE1":"1 45225U 20012AZ  22122.68425084  .00001617  00000-0  12744-3 0  9995","TIME_SYSTEM":"UTC","OBJECT_NAME":"STARLINK-1215","CLASSIFICATION_TYPE":"U","BSTAR":"0.00012744000000","MEAN_MOTION_DDOT":"0.0000000000000","ECCENTRICITY":"0.00017570","OBJECT_ID":"2020-012AZ","ARG_OF_PERICENTER":"43.0429","FILE":"3426306","MEAN_MOTION_DOT":"0.00001617","SITE":"AFETR","ELEMENT_SET_NO":"999","DECAY_DATE":null,"REV_AT_EPOCH":"12328","MEAN_MOTION":"15.06390425","INCLINATION":"53.0540","RA_OF_ASC_NODE":"202.8999","RCS_SIZE":"LARGE","OBJECT_TYPE":"PAYLOAD","NORAD_CAT_ID":"45225","MEAN_ANOMALY":"317.0697","LAUNCH_DATE":"2020-02-17","MEAN_ELEMENT_THEORY":"SGP4","EPHEMERIS_TYPE":"0","EPOCH":"2022-05-02T16:25:19.272576","PERIOD":"95.593","TLE_LINE2":"2 45225  53.0540 202.8999 0001757  43.0429 317.0697 15.06390425123282","SEMIMAJOR_AXIS":"6925.378","GP_ID":"202553547","APOAPSIS":"548.460"}];
